OBJECT_NAME,OBJECT_ID,EPOCH,MEAN_MOTION,ECCENTRICITY,INCLINATION,RA_OF_ASC_NODE,ARG_OF_PERICENTER,MEAN_ANOMALY,EPHEMERIS_TYPE,CLASSIFICATION_TYPE,NORAD_CAT_ID,ELEMENT_SET_NO,REV_AT_EPOCH,BSTAR,MEAN_MOTION_DOT,MEAN_MOTION_DDOT
SL-12 R/B(2),1985-042D,2026-07-01T03:52:41.875392,14.22008489,.003695,71.1063,207.9917,306.8356,118.7420,0,U,15772,999,13052,.20012E-4,-.3E-7,0
SL-14 R/B,1985-069B,2026-06-30T16:46:43.382208,14.86525786,.00189468,82.5274,278.6586,173.3453,186.8019,0,U,15945,999,18962,.47987922E-4,.45E-5,0
SL-16 R/B,1985-097B,2026-06-30T23:42:58.712256,14.16614733,.0005248,71.0033,262.0229,80.9063,91.6028,0,U,16182,999,10327,.2761E-4,.7E-7,0
SL-14 R/B,1986-006B,2026-06-30T21:56:06.105120,14.86958067,.0074711,82.5270,153.1955,257.0303,102.2564,0,U,16496,999,16603,.51646E-4,.511E-5,0
COSMOS 1743,1986-034A,2026-06-30T19:23:12.020928,15.68213650,.00047957,82.5282,314.2371,222.0056,138.0838,0,U,16719,999,19792,.50619165E-3,.5678E-3,0
SL-14 R/B,1986-046B,2026-06-30T11:43:19.648704,14.85680522,.00222499,82.4825,333.6057,212.0221,147.9645,0,U,16792,999,14315,.48955262E-4,.45E-5,0
SL-14 R/B,1986-055B,2026-07-01T02:20:45.549888,14.85732293,.0017864,82.5197,20.0531,320.7002,161.3670,0,U,16882,999,13620,.45094E-4,.416E-5,0
AJISAI (EGS),1986-061A,2026-07-01T05:03:08.894304,12.44516697,.001114,50.0094,104.2735,216.2376,308.9088,0,U,16908,999,48213,-.88945E-4,-.11E-5,0
SL-14 R/B,1987-024B,2026-06-30T21:14:05.704800,14.86222649,.0016818,82.5283,346.3741,243.7306,116.2183,0,U,17567,999,10494,.47586E-4,.443E-5,0
COSMOS 1833,1987-027A,2026-07-01T02:59:26.190816,14.13060170,.0023337,70.9206,87.5741,31.8865,328.3663,0,U,17589,999,2634,.17026E-3,.271E-5,0
SL-16 R/B,1987-027B,2026-07-01T01:12:53.211168,14.17174667,.0006928,71.0033,37.6145,297.4261,62.6158,0,U,17590,999,3140,.87274E-4,.128E-5,0
SL-14 R/B,1987-038B,2026-07-01T01:44:45.099744,14.85453622,.0020101,82.5003,189.9925,145.9920,214.2589,0,U,17912,999,9606,.43644E-4,.402E-5,0
COSMOS 1844,1987-041A,2026-07-01T04:18:01.664352,14.14571418,.0032158,70.8975,154.7928,215.0854,144.8150,0,U,17973,999,1963,.20102E-3,.34E-5,0
SL-14 R/B,1987-055B,2026-06-30T15:00:50.938848,14.85719322,.00206247,82.4985,242.5614,4.5584,355.5816,0,U,18153,999,8670,.38561273E-4,.36E-5,0
COSMOS 1867,1987-060A,2026-07-01T04:12:23.055840,14.31517253,.0016828,65.0117,348.8834,282.1409,77.7790,0,U,18187,999,3618,.25167E-4,-.33E-6,0
SL-14 R/B,1988-001B,2026-07-01T02:24:02.625696,14.85619091,.0016947,82.5134,88.6851,219.5495,140.4486,0,U,18749,999,5886,.47045E-4,.432E-5,0
COSMOS 1933,1988-020A,2026-07-01T04:52:08.979744,15.18807373,.0004983,82.5135,138.5555,143.2378,216.9199,0,U,18958,999,6745,.20844E-3,.4367E-4,0
SL-3 R/B,1988-032B,2026-07-01T04:35:26.833056,15.20941224,.0025023,97.5260,165.2187,193.8908,166.1641,0,U,19046,999,6935,.20817E-3,.4574E-4,0
SL-16 R/B,1988-039B,2026-07-01T03:25:39.404352,14.19630731,.0021416,71.0127,188.6485,171.9068,188.2407,0,U,19120,999,97448,.18555E-4,-.9E-7,0
COSMOS 1953,1988-050A,2026-07-01T01:54:27.431424,15.30168431,.0012353,82.5067,44.0233,83.8892,276.3755,0,U,19210,999,5511,.30733E-3,.9023E-4,0
SL-8 R/B,1988-053B,2026-07-01T00:01:28.706016,14.38972805,.0019287,74.0476,263.5943,53.8219,118.5253,0,U,19257,999,99289,.7639E-4,.21E-5,0
COSMOS 1975,1988-093A,2026-06-30T23:01:32.968704,15.29505664,.0012347,82.5186,3.8455,126.8365,233.4010,0,U,19573,999,3671,.27446E-3,.7899E-4,0
SL-14 R/B,1988-093B,2026-06-30T18:15:35.033760,14.85751645,.0021287,82.5321,295.9018,27.8939,132.3305,0,U,19574,999,1780,.45528011E-4,.421E-5,0
SL-16 R/B,1988-102B,2026-06-30T23:46:49.672416,14.16168980,.0015084,71.0004,273.0943,206.2615,153.7745,0,U,19650,999,94293,.92221E-4,.135E-5,0
INTERCOSMOS 24,1989-080A,2026-07-01T01:46:18.790176,12.59681171,.1187937,82.6050,30.6082,29.7111,336.6362,0,U,20261,999,68107,.20259E-3,.71E-5,0
SL-14 R/B,1989-080C,2026-07-01T03:53:20.270688,12.50575664,.1228377,82.5943,100.3296,285.4122,61.4775,0,U,20262,999,67433,.49008E-4,.162E-5,0
DELTA 1 R/B,1989-089B,2026-07-01T01:59:14.988768,14.50740198,.0070289,97.0632,11.4173,123.6073,237.1860,0,U,20323,999,91217,.96117E-4,.355E-5,0
ARIANE 40 R/B,1990-005H,2026-07-01T03:37:08.607648,14.39934802,.0009363,98.2953,239.3324,217.3560,142.6978,0,U,20443,999,90913,.10501E-3,.288E-5,0
DELTA 2 R/B(1),1990-008B,2026-06-30T23:45:29.569248,15.71023168,.0064292,35.5999,143.1719,244.5030,114.9051,0,U,20453,999,94387,.72169E-3,.107603E-2,0
COSMOS 2058,1990-010A,2026-07-01T00:46:57.929088,15.12098629,.0008517,82.4695,295.7014,307.0483,52.9968,0,U,20465,999,95936,.1768E-3,.3073E-4,0
SL-14 R/B,1990-010B,2026-07-01T04:42:12.595968,14.83655486,.0018253,82.5023,160.7885,287.3032,72.6185,0,U,20466,999,94531,.47981E-4,.42E-5,0
