{"format":"tle-catalog-v1","generatedAt":"2026-07-01T14:19:31.438Z","count":19018,"entries":[{"name":"AJISAI (EGS)","line1":"1 16908U 86061A   26182.21051961 -.00000110  00000+0 -88945-4 0  9990","line2":"2 16908  50.0094 104.2735 0011140 216.2376 308.9088 12.44516697482139"},{"name":"ARIANE 40 R/B","line1":"1 20443U 90005H   26182.15079407  .00000288  00000+0  10501-3 0  9996","line2":"2 20443  98.2953 239.3324 0009363 217.3560 142.6978 14.39934802909134"},{"name":"COSMOS 1743","line1":"1 16719U 86034A   26181.80777802  .00056780  00000+0  50619-3 0  9991","line2":"2 16719  82.5282 314.2371 0004795 222.0056 138.0838 15.68213650197922"},{"name":"COSMOS 1833","line1":"1 17589U 87027A   26182.12460869  .00000271  00000+0  17026-3 0  9997","line2":"2 17589  70.9206  87.5741 0023337  31.8865 328.3663 14.13060170 26346"},{"name":"COSMOS 1844","line1":"1 17973U 87041A   26182.17918593  .00000340  00000+0  20102-3 0  9993","line2":"2 17973  70.8975 154.7928 0032158 215.0854 144.8150 14.14571418 19633"},{"name":"COSMOS 1867","line1":"1 18187U 87060A   26182.17526685 -.00000033  00000+0  25167-4 0  9996","line2":"2 18187  65.0117 348.8834 0016828 282.1409  77.7790 14.31517253 36183"},{"name":"COSMOS 1933","line1":"1 18958U 88020A   26182.20288171  .00004367  00000+0  20844-3 0  9997","line2":"2 18958  82.5135 138.5555 0004983 143.2378 216.9199 15.18807373 67453"},{"name":"COSMOS 1953","line1":"1 19210U 88050A   26182.07948416  .00009023  00000+0  30733-3 0  9994","line2":"2 19210  82.5067  44.0233 0012353  83.8892 276.3755 15.30168431 55110"},{"name":"COSMOS 1975","line1":"1 19573U 88093A   26181.95940936  .00007899  00000+0  27446-3 0  9994","line2":"2 19573  82.5186   3.8455 0012347 126.8365 233.4010 15.29505664 36713"},{"name":"COSMOS 2058","line1":"1 20465U 90010A   26182.03261492  .00003073  00000+0  17680-3 0  9990","line2":"2 20465  82.4695 295.7014 0008517 307.0483  52.9968 15.12098629959361"},{"name":"DELTA 1 R/B","line1":"1 20323U 89089B   26182.08281237  .00000355  00000+0  96117-4 0  9994","line2":"2 20323  97.0632  11.4173 0070289 123.6073 237.1860 14.50740198912170"},{"name":"DELTA 2 R/B(1)","line1":"1 20453U 90008B   26181.98992557  .00107603  00000+0  72169-3 0  9997","line2":"2 20453  35.5999 143.1719 0064292 244.5030 114.9051 15.71023168943879"},{"name":"INTERCOSMOS 24","line1":"1 20261U 89080A   26182.07382859  .00000710  00000+0  20259-3 0  9995","line2":"2 20261  82.6050  30.6082 1187937  29.7111 336.6362 12.59681171681072"},{"name":"SL-12 R/B(2)","line1":"1 15772U 85042D   26182.16159578 -.00000003  00000+0  20012-4 0  9994","line2":"2 15772  71.1063 207.9917 0036950 306.8356 118.7420 14.22008489130523"},{"name":"SL-14 R/B","line1":"1 15945U 85069B   26181.69911322  .00000450  00000+0  47988-4 0  9991","line2":"2 15945  82.5274 278.6586 0018946 173.3453 186.8019 14.86525786189621"},{"name":"SL-14 R/B","line1":"1 16496U 86006B   26181.91395955  .00000511  00000+0  51646-4 0  9992","line2":"2 16496  82.5270 153.1955 0074711 257.0303 102.2564 14.86958067166031"},{"name":"SL-14 R/B","line1":"1 16792U 86046B   26181.48842186  .00000450  00000+0  48955-4 0  9991","line2":"2 16792  82.4825 333.6057 0022249 212.0221 147.9645 14.85680522143153"},{"name":"SL-14 R/B","line1":"1 16882U 86055B   26182.09774942  .00000416  00000+0  45094-4 0  9996","line2":"2 16882  82.5197  20.0531 0017864 320.7002 161.3670 14.85732293136200"},{"name":"SL-14 R/B","line1":"1 17567U 87024B   26181.88478825  .00000443  00000+0  47586-4 0  9999","line2":"2 17567  82.5283 346.3741 0016818 243.7306 116.2183 14.86222649104947"},{"name":"SL-14 R/B","line1":"1 17912U 87038B   26182.07274421  .00000402  00000+0  43644-4 0  9992","line2":"2 17912  82.5003 189.9925 0020101 145.9920 214.2589 14.85453622 96069"},{"name":"SL-14 R/B","line1":"1 18153U 87055B   26181.62558957  .00000360  00000+0  38561-4 0  9993","line2":"2 18153  82.4985 242.5614 0020624   4.5584 355.5816 14.85719322 86706"},{"name":"SL-14 R/B","line1":"1 18749U 88001B   26182.10003039  .00000432  00000+0  47045-4 0  9993","line2":"2 18749  82.5134  88.6851 0016947 219.5495 140.4486 14.85619091 58860"},{"name":"SL-14 R/B","line1":"1 19574U 88093B   26181.76082215  .00000421  00000+0  45528-4 0  9997","line2":"2 19574  82.5321 295.9018 0021287  27.8939 132.3305 14.85751645 17800"},{"name":"SL-14 R/B","line1":"1 20262U 89080C   26182.16204017  .00000162  00000+0  49008-4 0  9990","line2":"2 20262  82.5943 100.3296 1228377 285.4122  61.4775 12.50575664674334"},{"name":"SL-14 R/B","line1":"1 20466U 90010B   26182.19597912  .00000420  00000+0  47981-4 0  9998","line2":"2 20466  82.5023 160.7885 0018253 287.3032  72.6185 14.83655486945310"},{"name":"SL-16 R/B","line1":"1 16182U 85097B   26181.98817954  .00000007  00000+0  27610-4 0  9992","line2":"2 16182  71.0033 262.0229 0005248  80.9063  91.6028 14.16614733103277"},{"name":"SL-16 R/B","line1":"1 17590U 87027B   26182.05061587  .00000128  00000+0  87274-4 0  9999","line2":"2 17590  71.0033  37.6145 0006928 297.4261  62.6158 14.17174667 31400"},{"name":"SL-16 R/B","line1":"1 19120U 88039B   26182.14281718 -.00000009  00000+0  18555-4 0  9999","line2":"2 19120  71.0127 188.6485 0021416 171.9068 188.2407 14.19630731974486"},{"name":"SL-16 R/B","line1":"1 19650U 88102B   26181.99085269  .00000135  00000+0  92221-4 0  9994","line2":"2 19650  71.0004 273.0943 0015084 206.2615 153.7745 14.16168980942936"},{"name":"SL-3 R/B","line1":"1 19046U 88032B   26182.19128279  .00004574  00000+0  20817-3 0  9999","line2":"2 19046  97.5260 165.2187 0025023 193.8908 166.1641 15.20941224 69359"},{"name":"SL-8 R/B","line1":"1 19257U 88053B   26182.00102669  .00000210  00000+0  76390-4 0  9992","line2":"2 19257  74.0476 263.5943 0019287  53.8219 118.5253 14.38972805992890"}]}